OBJECT_NAME,OBJECT_ID,EPOCH,MEAN_MOTION,ECCENTRICITY,INCLINATION,RA_OF_ASC_NODE,ARG_OF_PERICENTER,MEAN_ANOMALY,EPHEMERIS_TYPE,CLASSIFICATION_TYPE,NORAD_CAT_ID,ELEMENT_SET_NO,REV_AT_EPOCH,BSTAR,MEAN_MOTION_DOT,MEAN_MOTION_DDOT
KZ-11 R/B,2026-138H,2026-07-12T21:48:00.762624,15.43010363,.03770511,55.1520,167.7492,143.6026,219.1292,0,U,69628,999,389,.75497354E-3,.78015E-2,.9750105E-5
CENTISPACE-1 GROUP 05 OBJECT J,2026-138J,2026-07-13T09:42:48.125952,14.15842380,.00095471,55.1383,184.3032,341.3483,18.7141,0,U,69636,999,370,-.51944164E-4,-.256E-5,0
VICTUS HAZE PUMA,2026-142A,2026-07-14T18:49:57.383616,15.20845903,.00250405,97.4467,93.0928,267.3590,92.4779,0,U,69646,999,386,.92001941E-4,.1975E-4,0
HOKUSHIN-1,1998-067YH,2026-07-14T21:45:07.782048,15.50995036,.0006091,51.6309,162.6670,329.3838,30.6795,0,U,69648,999,395,.28430295E-3,.1639E-3,0
STARLINK-37656,2026-143A,2026-07-15T02:05:40.748352,15.49206293,.0000699,97.2845,239.9687,91.0701,269.0631,0,U,69649,999,486,.55396E-3,.30171E-3,0
STARLINK-37646,2026-143B,2026-07-15T01:52:31.734048,15.49201304,.0000948,97.2852,240.1363,345.7107,14.4117,0,U,69650,999,487,.8544E-4,.4561E-4,0
STARLINK-37749,2026-143C,2026-07-15T02:02:26.132352,15.49199456,.0000604,97.2844,240.1266,140.3115,219.8181,0,U,69651,999,487,.32587E-3,.17678E-3,0
STARLINK-37819,2026-143D,2026-07-15T02:19:06.144096,15.49190630,.0000771,97.2855,240.1123,112.8055,247.3277,0,U,69652,999,487,.5069E-3,.27576E-3,0
STARLINK-37729,2026-143E,2026-07-15T04:00:03.000096,15.83787139,.000249,97.2819,240.5725,186.3523,39.2689,0,U,69653,999,495,.34959E-3,.77393E-3,0
STARLINK-37838,2026-143F,2026-07-15T03:09:28.787616,15.49190830,.0001069,97.2844,240.2170,55.8302,304.3051,0,U,69654,999,488,.23433E-3,.12675E-3,0
STARLINK-37884,2026-143G,2026-07-15T02:31:08.151744,15.49208298,.0000473,97.2839,240.0987,53.5821,306.5474,0,U,69655,999,487,.42842E-3,.23294E-3,0
STARLINK-37876,2026-143H,2026-07-15T01:37:05.355840,15.49205196,.0001464,97.2843,240.1514,91.0726,269.0693,0,U,69656,999,480,.30652E-3,.16625E-3,0
STARLINK-37784,2026-143J,2026-07-15T02:20:24.330912,15.49170732,.0001981,97.2844,240.1107,112.8639,247.2821,0,U,69657,999,480,.60018E-3,.32667E-3,0
STARLINK-37851,2026-143K,2026-07-15T03:13:12.010656,15.49203934,.0000598,97.2847,240.2137,79.3590,280.7728,0,U,69658,999,481,.28236E-3,.15304E-3,0
STARLINK-37229,2026-143L,2026-07-15T02:08:15.880416,15.49202261,.0000895,97.2846,240.1199,91.4928,268.6426,0,U,69659,999,481,.31672E-3,.1718E-3,0
STARLINK-37556,2026-143M,2026-07-15T04:00:03.000096,15.43992353,.0002502,97.2847,240.2291,83.9997,43.0890,0,U,69660,999,489,-.72788E-1,-.2935211E-1,0
STARLINK-37867,2026-143N,2026-07-15T01:40:34.427424,15.49204020,.0001501,97.2847,240.1489,80.0224,280.1196,0,U,69661,999,480,.28168E-3,.15267E-3,0
STARLINK-37852,2026-143P,2026-07-15T02:26:17.891808,15.49203467,.0000932,97.2855,240.1043,117.4793,242.6553,0,U,69662,999,480,.24014E-3,.12998E-3,0
STARLINK-37554,2026-143Q,2026-07-15T01:54:11.500128,15.49206058,.0001076,97.2843,240.1336,107.7041,252.4328,0,U,69663,999,481,.28916E-3,.15676E-3,0
STARLINK-37830,2026-143R,2026-07-15T02:15:57.779136,15.49199238,.0001608,97.2844,240.1138,110.2666,249.8758,0,U,69664,999,480,.43169E-3,.23467E-3,0
STARLINK-37837,2026-143S,2026-07-15T04:00:03.000096,15.36968124,.0001034,97.2836,240.2235,63.2253,62.8503,0,U,69665,999,485,-.13119E-4,-.552E-5,0
STARLINK-37943,2026-143T,2026-07-15T02:15:11.839392,15.49202699,.0001289,97.2845,240.1149,98.0616,262.0781,0,U,69666,999,480,.28219E-3,.15294E-3,0
STARLINK-37941,2026-143U,2026-07-15T01:57:00.779328,15.49209516,.00008,97.2846,240.1313,82.3411,277.7931,0,U,69667,999,480,.37911E-3,.20596E-3,0
STARLINK-37930,2026-143V,2026-07-15T01:56:15.393408,15.49173111,.0001167,97.2842,240.1315,105.2826,254.8554,0,U,69668,999,480,.14696E-3,.7906E-4,0
STARLINK-37945,2026-143W,2026-07-15T01:37:40.039392,15.49216260,.0001176,97.2842,240.1502,84.8601,275.2785,0,U,69669,999,480,.65063E-3,.35489E-3,0
STARLINK-37948,2026-143X,2026-07-15T02:46:38.786016,15.49208616,.0001356,97.2866,240.0861,48.6006,311.5361,0,U,69670,999,480,.52779E-3,.28739E-3,0
STARLINK-37949,2026-143Y,2026-07-15T02:11:30.626016,15.49196273,.0000319,97.2843,240.1178,107.3127,252.8159,0,U,69671,999,480,.40585E-3,.2205E-3,0
STARLINK-37946,2026-143Z,2026-07-15T01:51:26.927136,15.49205965,.0000887,97.2841,240.1374,73.6959,286.4389,0,U,69672,999,480,.38229E-3,.20768E-3,0
TJS-26A,2026-144A,2026-07-12T07:10:37.543296,1.00274367,.0004208,6.9538,323.2302,347.4913,194.6526,0,U,69674,999,19,0,-.341E-5,0
CZ-7A R/B,2026-144B,2026-07-14T16:36:23.952096,2.58946557,.71001167,19.4463,315.2678,196.2857,116.7267,0,U,69675,999,55,.93323132E-3,.841495E-2,.18154779E-4
